{
  "type": "FeatureCollection",
  "features": [
    {
      "type": "Feature",
      "properties": {
        "norad_id": 35045,
        "name": "COSMOS 2251 DEB",
        "group": "cosmos-2251-debris",
        "lat": 28.835219628989428,
        "lon": 37.99235388798899,
        "alt_km": 958.4193929385665,
        "timestamp": "2025-12-26T07:29:18.850347+00:00",
        "meta_object_name": "COSMOS 2251 DEB",
        "meta_object_id": "1993-036AHJ",
        "meta_epoch": "2025-12-24T19:20:26.125152",
        "meta_mean_motion": 14.0041252,
        "meta_eccentricity": 0.01839955,
        "meta_inclination": 73.7191,
        "meta_ra_of_asc_node": 31.3925,
        "meta_arg_of_pericenter": 271.7742,
        "meta_mean_anomaly": 86.2325,
        "meta_ephemeris_type": 0,
        "meta_classification_type": "U",
        "meta_norad_cat_id": 35045,
        "meta_element_set_no": 999,
        "meta_rev_at_epoch": 84812,
        "meta_bstar": 0.0006276669,
        "meta_mean_motion_dot": 1.049e-05,
        "meta_mean_motion_ddot": 0,
        "tle_line1": "1 35045U 93036AHJ 25358.80585793  .00001049  00000+0  62767-3 0  9990",
        "tle_line2": "2 35045  73.7191  31.3925 0183995 271.7742  86.2325 14.00412520848123"
      },
      "geometry": {
        "type": "Point",
        "coordinates": [
          37.99235388798899,
          28.835219628989428
        ]
      }
    },
    {
      "type": "Feature",
      "properties": {
        "norad_id": 35060,
        "name": "COSMOS 2251 DEB",
        "group": "cosmos-2251-debris",
        "lat": 31.91472559942493,
        "lon": 28.92407656873668,
        "alt_km": 763.0812981110257,
        "timestamp": "2025-12-26T07:29:18.850356+00:00",
        "meta_object_name": "COSMOS 2251 DEB",
        "meta_object_id": "1993-036AHP",
        "meta_epoch": "2025-12-23T23:50:58.864704",
        "meta_mean_motion": 14.416228,
        "meta_eccentricity": 0.00187381,
        "meta_inclination": 74.0364,
        "meta_ra_of_asc_node": 223.4863,
        "meta_arg_of_pericenter": 306.8479,
        "meta_mean_anomaly": 53.0958,
        "meta_ephemeris_type": 0,
        "meta_classification_type": "U",
        "meta_norad_cat_id": 35060,
        "meta_element_set_no": 999,
        "meta_rev_at_epoch": 87404,
        "meta_bstar": 0.0002601881,
        "meta_mean_motion_dot": 8.22e-06,
        "meta_mean_motion_ddot": 0,
        "tle_line1": "1 35060U 93036AHP 25357.99373686  .00000822  00000+0  26019-3 0  9990",
        "tle_line2": "2 35060  74.0364 223.4863 0018738 306.8479  53.0958 14.41622800874043"
      },
      "geometry": {
        "type": "Point",
        "coordinates": [
          28.92407656873668,
          31.91472559942493
        ]
      }
    },
    {
      "type": "Feature",
      "properties": {
        "norad_id": 35061,
        "name": "COSMOS 2251 DEB",
        "group": "cosmos-2251-debris",
        "lat": -50.0696720671001,
        "lon": 119.49713442201227,
        "alt_km": 699.313361956838,
        "timestamp": "2025-12-26T07:29:18.850367+00:00",
        "meta_object_name": "COSMOS 2251 DEB",
        "meta_object_id": "1993-036AHQ",
        "meta_epoch": "2025-12-25T12:26:22.141248",
        "meta_mean_motion": 14.67934015,
        "meta_eccentricity": 0.003974,
        "meta_inclination": 74.0461,
        "meta_ra_of_asc_node": 281.0451,
        "meta_arg_of_pericenter": 28.402,
        "meta_mean_anomaly": 331.9304,
        "meta_ephemeris_type": 0,
        "meta_classification_type": "U",
        "meta_norad_cat_id": 35061,
        "meta_element_set_no": 999,
        "meta_rev_at_epoch": 88762,
        "meta_bstar": 0.00083709,
        "meta_mean_motion_dot": 4.819e-05,
        "meta_mean_motion_ddot": 0,
        "tle_line1": "1 35061U 93036AHQ 25359.51831182  .00004819  00000+0  83709-3 0  9990",
        "tle_line2": "2 35061  74.0461 281.0451 0039740  28.4020 331.9304 14.67934015887623"
      },
      "geometry": {
        "type": "Point",
        "coordinates": [
          119.49713442201227,
          -50.0696720671001
        ]
      }
    },
    {
      "type": "Feature",
      "properties": {
        "norad_id": 35062,
        "name": "COSMOS 2251 DEB",
        "group": "cosmos-2251-debris",
        "lat": -69.85500638707414,
        "lon": -60.001083805836,
        "alt_km": 910.3498324569882,
        "timestamp": "2025-12-26T07:29:18.850377+00:00",
        "meta_object_name": "COSMOS 2251 DEB",
        "meta_object_id": "1993-036AHR",
        "meta_epoch": "2025-12-25T04:58:43.946112",
        "meta_mean_motion": 14.23029012,
        "meta_eccentricity": 0.0126046,
        "meta_inclination": 74.0785,
        "meta_ra_of_asc_node": 70.8899,
        "meta_arg_of_pericenter": 66.8027,
        "meta_mean_anomaly": 294.6336,
        "meta_ephemeris_type": 0,
        "meta_classification_type": "U",
        "meta_norad_cat_id": 35062,
        "meta_element_set_no": 999,
        "meta_rev_at_epoch": 85676,
        "meta_bstar": 0.0014843,
        "meta_mean_motion_dot": 3.607e-05,
        "meta_mean_motion_ddot": 0,
        "tle_line1": "1 35062U 93036AHR 25359.20745308  .00003607  00000+0  14843-2 0  9997",
        "tle_line2": "2 35062  74.0785  70.8899 0126046  66.8027 294.6336 14.23029012856767"
      },
      "geometry": {
        "type": "Point",
        "coordinates": [
          -60.001083805836,
          -69.85500638707414
        ]
      }
    },
    {
      "type": "Feature",
      "properties": {
        "norad_id": 35065,
        "name": "COSMOS 2251 DEB",
        "group": "cosmos-2251-debris",
        "lat": -23.09769897372305,
        "lon": 161.98304963092815,
        "alt_km": 734.4152942979435,
        "timestamp": "2025-12-26T07:29:18.850387+00:00",
        "meta_object_name": "COSMOS 2251 DEB",
        "meta_object_id": "1993-036AHU",
        "meta_epoch": "2025-12-19T06:12:25.656192",
        "meta_mean_motion": 14.4574331,
        "meta_eccentricity": 0.0020018,
        "meta_inclination": 74.0185,
        "meta_ra_of_asc_node": 182.1668,
        "meta_arg_of_pericenter": 306.5523,
        "meta_mean_anomaly": 53.3791,
        "meta_ephemeris_type": 0,
        "meta_classification_type": "U",
        "meta_norad_cat_id": 35065,
        "meta_element_set_no": 999,
        "meta_rev_at_epoch": 68445,
        "meta_bstar": 0.00028971,
        "meta_mean_motion_dot": 1.002e-05,
        "meta_mean_motion_ddot": 0,
        "tle_line1": "1 35065U 93036AHU 25353.25863028  .00001002  00000+0  28971-3 0  9994",
        "tle_line2": "2 35065  74.0185 182.1668 0020018 306.5523  53.3791 14.45743310684450"
      },
      "geometry": {
        "type": "Point",
        "coordinates": [
          161.98304963092815,
          -23.09769897372305
        ]
      }
    },
    {
      "type": "Feature",
      "properties": {
        "norad_id": 35071,
        "name": "COSMOS 2251 DEB",
        "group": "cosmos-2251-debris",
        "lat": 38.34986053433924,
        "lon": -47.657442542285466,
        "alt_km": 561.63671638085,
        "timestamp": "2025-12-26T07:29:18.850396+00:00",
        "meta_object_name": "COSMOS 2251 DEB",
        "meta_object_id": "1993-036AJA",
        "meta_epoch": "2025-12-25T02:08:01.635648",
        "meta_mean_motion": 15.03684095,
        "meta_eccentricity": 0.00685428,
        "meta_inclination": 73.9325,
        "meta_ra_of_asc_node": 148.0386,
        "meta_arg_of_pericenter": 40.7776,
        "meta_mean_anomaly": 319.8513,
        "meta_ephemeris_type": 0,
        "meta_classification_type": "U",
        "meta_norad_cat_id": 35071,
        "meta_element_set_no": 999,
        "meta_rev_at_epoch": 67722,
        "meta_bstar": 0.00076375103,
        "meta_mean_motion_dot": 0.00010995,
        "meta_mean_motion_ddot": 0,
        "tle_line1": "1 35071U 93036AJA 25359.08890782  .00010995  00000+0  76375-3 0  9997",
        "tle_line2": "2 35071  73.9325 148.0386 0068542  40.7776 319.8513 15.03684095677228"
      },
      "geometry": {
        "type": "Point",
        "coordinates": [
          -47.657442542285466,
          38.34986053433924
        ]
      }
    },
    {
      "type": "Feature",
      "properties": {
        "norad_id": 35073,
        "name": "COSMOS 2251 DEB",
        "group": "cosmos-2251-debris",
        "lat": 51.416800588042136,
        "lon": 101.8122803322221,
        "alt_km": 555.6722220384972,
        "timestamp": "2025-12-26T07:29:18.850406+00:00",
        "meta_object_name": "COSMOS 2251 DEB",
        "meta_object_id": "1993-036AJC",
        "meta_epoch": "2025-12-23T13:22:12.377280",
        "meta_mean_motion": 15.01382354,
        "meta_eccentricity": 0.00112511,
        "meta_inclination": 74.0027,
        "meta_ra_of_asc_node": 308.5087,
        "meta_arg_of_pericenter": 50.3654,
        "meta_mean_anomaly": 309.8525,
        "meta_ephemeris_type": 0,
        "meta_classification_type": "U",
        "meta_norad_cat_id": 35073,
        "meta_element_set_no": 999,
        "meta_rev_at_epoch": 67641,
        "meta_bstar": 0.0032564954,
        "meta_mean_motion_dot": 0.00042271,
        "meta_mean_motion_ddot": 0,
        "tle_line1": "1 35073U 93036AJC 25357.55708770  .00042271  00000+0  32565-2 0  9998",
        "tle_line2": "2 35073  74.0027 308.5087 0011251  50.3654 309.8525 15.01382354676412"
      },
      "geometry": {
        "type": "Point",
        "coordinates": [
          101.8122803322221,
          51.416800588042136
        ]
      }
    }
  ]
}